{"type":"FeatureCollection","features":[{"type":"Feature","properties":{"name":"Chaman + Killa Abdullah","population":828189,"area":4894,"density":169,"includes":["Chaman","Killa Abdullah"],"boundaryName":"Killa Abdullah"},"geometry":{"type":"MultiPolygon","coordinates":[[[[67.262018,31.206941],[67.223081,31.033737],[67.067663,30.937978],[66.991996,30.973238],[66.920605,30.920556],[66.853896,30.953354],[66.834167,30.856514],[66.767393,30.748975],[66.848974,30.581435],[66.561772,30.582859],[66.572372,30.482201],[66.512907,30.274155],[66.523571,30.222329],[66.468382,30.158728],[66.350629,30.185903],[66.239863,30.086096],[66.316603,30.242876],[66.354119,30.427271],[66.281059,30.569275],[66.386572,30.933918],[66.562666,30.977686],[66.683167,31.074593],[66.731072,31.212508],[66.969124,31.31261],[67.044463,31.303828],[67.056169,31.23083],[67.166345,31.243393],[67.262018,31.206941]]]]}},{"type":"Feature","properties":{"name":"Sohbatpur","population":240106,"area":802,"density":299,"includes":["Sohbatpur"],"boundaryName":"Sohbatpur"},"geometry":{"type":"MultiPolygon","coordinates":[[[[69.127503,28.440611],[68.920075,28.43022],[68.839531,28.430696],[68.826332,28.430761],[68.724205,28.430216],[68.708549,28.430006],[68.517845,28.4314],[68.503708,28.431644],[68.434211,28.409013],[68.382586,28.562721],[68.381938,28.639945],[68.384051,28.643699],[68.448179,28.674008],[68.468483,28.646435],[68.778351,28.483635],[69.127503,28.440611]]]]}},{"type":"Feature","properties":{"name":"Sherani","population":191687,"area":4310,"density":44,"includes":["Sherani"],"boundaryName":"Sherani"},"geometry":{"type":"MultiPolygon","coordinates":[[[[69.956453,31.894506],[69.939713,31.545603],[70.018135,31.508099],[70.052424,31.398349],[70.028619,31.303653],[69.930426,31.247805],[69.823878,31.293699],[69.719628,31.273564],[69.722992,31.325514],[69.569398,31.356721],[69.531311,31.521212],[69.62171,31.840328],[69.546152,31.956688],[69.679548,32.072944],[69.852486,32.100616],[69.800369,32.022572],[69.880524,31.981709],[69.855827,31.892056],[69.956453,31.894506]]]]}},{"type":"Feature","properties":{"name":"Awaran","population":178958,"area":29510,"density":6,"includes":["Awaran"],"boundaryName":"Awaran"},"geometry":{"type":"MultiPolygon","coordinates":[[[[66.251837,26.479898],[66.162347,26.275357],[66.201331,26.161245],[66.260024,25.849884],[66.196871,25.692548],[66.069961,25.476263],[66.01922,25.453276],[65.909592,25.496989],[65.749548,25.515089],[65.544959,25.43418],[65.537813,25.556669],[65.465615,25.66305],[65.338676,25.591011],[65.203154,25.557272],[65.171384,25.601791],[65.033982,25.568255],[64.477323,25.492781],[64.357505,25.432489],[64.283033,25.462912],[64.139887,25.467239],[64.170978,25.559738],[64.207403,25.607369],[64.352362,25.639879],[64.276437,25.751245],[64.375853,26.002243],[64.502092,26.065405],[64.497466,26.176852],[64.444633,26.229585],[64.445404,26.365505],[64.918374,26.367681],[64.914901,26.450734],[65.1279,26.630026],[65.298468,26.803366],[65.336272,26.895407],[65.347313,26.983736],[65.538641,27.257729],[65.592966,27.417526],[65.778275,27.357422],[65.827645,27.307421],[65.912027,27.139364],[65.999214,27.145447],[66.050887,27.099373],[66.000717,26.836529],[65.931006,26.611843],[65.93316,26.541772],[66.043496,26.374409],[66.081345,26.367434],[66.105005,26.48772],[66.187865,26.569715],[66.251837,26.479898]]]]}},{"type":"Feature","properties":{"name":"Barkhan","population":210249,"area":3514,"density":60,"includes":["Barkhan"],"boundaryName":"Barkhan"},"geometry":{"type":"MultiPolygon","coordinates":[[[[69.96117,30.322636],[70.076202,30.262419],[69.997131,30.179012],[69.97966,30.076746],[69.877683,29.89879],[69.789001,29.768806],[69.646005,29.685261],[69.544395,29.706112],[69.255517,29.61134],[69.090941,29.686073],[69.060501,29.726379],[69.195169,29.819222],[69.389021,29.89563],[69.47766,30.003852],[69.404067,30.044804],[69.437775,30.100965],[69.594238,30.137832],[69.739542,30.358384],[69.801203,30.291074],[69.96117,30.322636]]]]}},{"type":"Feature","properties":{"name":"Chagai","population":269192,"area":44748,"density":6,"includes":["Chagai"],"boundaryName":"Chaghi"},"geometry":{"type":"MultiPolygon","coordinates":[[[[65.129303,29.551637],[65.261122,29.413469],[65.476232,29.032923],[65.391599,28.983789],[65.368303,28.96853],[65.160479,28.814639],[65.040849,28.795009],[64.913378,28.683019],[64.91211,28.682778],[64.811225,28.695111],[64.498749,28.61161],[64.407039,28.523397],[64.126709,28.467712],[64.006714,28.382324],[63.923523,28.379089],[63.823731,28.305291],[63.26043,28.276556],[63.205051,28.182953],[63.065954,28.109623],[63.056572,28.101991],[63.032666,28.083253],[63.020088,28.073662],[63.015331,28.069663],[63.0008,28.056248],[62.934841,28.001396],[62.898512,27.961678],[62.897932,27.961012],[62.887763,27.949364],[62.868493,27.930945],[62.801957,27.888823],[62.768227,28.032406],[62.786938,28.281181],[62.592316,28.255127],[62.439671,28.407129],[62.296291,28.463451],[62.115788,28.4851],[61.957584,28.548695],[61.804157,28.640169],[61.681038,28.770594],[61.504318,29.007545],[61.428669,29.193781],[61.357746,29.282784],[61.372604,29.348673],[61.192589,29.502495],[60.878597,29.86178],[61.652519,29.625699],[62.455774,29.388966],[63.364513,29.476374],[63.590844,29.490426],[64.032371,29.417694],[64.105293,29.377477],[64.152337,29.449561],[64.266815,29.523843],[64.487616,29.571786],[64.631929,29.581082],[65.067048,29.536235],[65.129303,29.551637]]]]}},{"type":"Feature","properties":{"name":"Dera Bugti","population":355274,"area":10160,"density":35,"includes":["Dera Bugti"],"boundaryName":"Dera Bugti"},"geometry":{"type":"MultiPolygon","coordinates":[[[[69.363762,28.445637],[69.127503,28.440611],[68.778351,28.483635],[68.468483,28.646435],[68.448179,28.674008],[68.415521,28.965868],[68.382867,29.049495],[68.289491,29.161114],[68.29664,29.226202],[68.486501,29.217451],[68.660685,29.264082],[68.920496,29.222746],[69.016425,29.260612],[69.187461,29.259527],[69.273345,29.34581],[69.466196,29.446856],[69.496651,29.515724],[69.426134,29.543698],[69.515985,29.661894],[69.628899,29.668725],[69.591469,29.626049],[69.563515,29.458612],[69.667633,29.362459],[69.638832,29.319206],[69.744019,29.236422],[69.706306,29.089659],[69.650574,29.065708],[69.574341,28.953979],[69.489601,28.891567],[69.532913,28.773094],[69.420921,28.597683],[69.324692,28.554907],[69.363762,28.445637]]]]}},{"type":"Feature","properties":{"name":"Kohlu","population":260220,"area":7610,"density":34,"includes":["Kohlu"],"boundaryName":"Kohlu"},"geometry":{"type":"MultiPolygon","coordinates":[[[[69.646005,29.685261],[69.628899,29.668725],[69.515985,29.661894],[69.426134,29.543698],[69.496651,29.515724],[69.466196,29.446856],[69.273345,29.34581],[69.187461,29.259527],[69.016425,29.260612],[68.920496,29.222746],[68.660685,29.264082],[68.486501,29.217451],[68.343291,29.263837],[68.177276,29.374453],[68.099067,29.419155],[68.193679,29.584566],[68.265642,29.628489],[68.432077,29.624041],[68.572435,29.732542],[68.568138,29.828848],[68.402556,29.905695],[68.398278,29.936395],[68.409437,30.016086],[68.555382,29.915402],[68.804558,29.948944],[68.944373,30.028267],[69.040725,29.976144],[69.17984,30.007858],[69.334797,30.008647],[69.404067,30.044804],[69.47766,30.003852],[69.389021,29.89563],[69.195169,29.819222],[69.060501,29.726379],[69.090941,29.686073],[69.255517,29.61134],[69.544395,29.706112],[69.646005,29.685261]]]]}},{"type":"Feature","properties":{"name":"Gwadar","population":305160,"area":12637,"density":24,"includes":["Gwadar"],"boundaryName":"Gwadar"},"geometry":{"type":"MultiPolygon","coordinates":[[[[61.779855,25.817539],[61.806505,25.700851],[61.96022,25.661039],[62.011449,25.714014],[62.076332,25.679014],[62.113049,25.575154],[62.054146,25.508892],[62.124122,25.473608],[62.404438,25.554125],[62.803997,25.566019],[62.983022,25.597324],[63.035488,25.529622],[63.354328,25.491771],[63.467774,25.407425],[63.78093,25.557929],[63.999096,25.612087],[64.170978,25.559738],[64.139887,25.467239],[64.283033,25.462912],[64.357505,25.432489],[64.477323,25.492781],[65.033982,25.568255],[65.171384,25.601791],[65.203154,25.557272],[65.204031,25.400507],[65.238085,25.344421],[65.156418,25.306086],[64.995323,25.325205],[64.749901,25.320938],[64.605347,25.229967],[64.543571,25.270481],[64.399971,25.239676],[64.223343,25.317995],[63.945965,25.3358],[63.675076,25.38266],[63.535648,25.34573],[63.474548,25.265833],[63.481861,25.198297],[63.1395,25.257742],[63.007114,25.210642],[62.657661,25.261488],[62.494465,25.252853],[62.356228,25.169922],[62.217228,25.215199],[62.084877,25.188089],[62.09837,25.09618],[61.874706,25.102684],[61.844944,25.043432],[61.724167,25.054052],[61.785206,25.156734],[61.698227,25.204245],[61.610455,25.194952],[61.655613,25.297499],[61.689205,25.799166],[61.779855,25.817539]]]]}},{"type":"Feature","properties":{"name":"Harnai","population":127571,"area":2492,"density":51,"includes":["Harnai"],"boundaryName":"Harnai"},"geometry":{"type":"MultiPolygon","coordinates":[[[[68.208198,30.173775],[68.409437,30.016086],[68.398278,29.936395],[68.272744,29.932131],[68.064437,29.888434],[68.028618,29.816669],[67.976456,29.839889],[68.011057,29.960087],[67.972519,30.021892],[67.778579,30.017627],[67.791458,30.062614],[67.673239,30.126033],[67.561974,30.092829],[67.519449,30.030998],[67.432113,30.051931],[67.412542,30.176466],[67.277932,30.207849],[67.280189,30.332874],[67.489936,30.315366],[67.583037,30.27726],[67.757059,30.355923],[67.868878,30.34455],[68.098751,30.261092],[68.208198,30.173775]]]]}},{"type":"Feature","properties":{"name":"Jaffarabad","population":594558,"area":1643,"density":362,"includes":["Jaffarabad"],"boundaryName":"Jaffarabad"},"geometry":{"type":"MultiPolygon","coordinates":[[[[68.434211,28.409013],[68.382332,28.340269],[68.374435,28.323849],[68.311232,28.271797],[68.293785,28.267128],[68.209,28.242517],[68.073785,28.136724],[68.054146,28.120869],[68.019669,28.093897],[68.017784,28.092047],[67.912964,27.994295],[67.670678,27.934242],[67.62831,28.148368],[67.803623,28.203558],[67.950822,28.238216],[68.070969,28.339895],[68.078896,28.386445],[68.203729,28.440881],[68.381791,28.451633],[68.382586,28.562721],[68.434211,28.409013]]]]}},{"type":"Feature","properties":{"name":"Jhal Magsi","population":203368,"area":3615,"density":56,"includes":["Jhal Magsi"],"boundaryName":"Jhal Magsi"},"geometry":{"type":"MultiPolygon","coordinates":[[[[67.684816,28.838171],[67.775944,28.608114],[67.788458,28.553726],[67.742617,28.426691],[67.803623,28.203558],[67.62831,28.148368],[67.670678,27.934242],[67.425896,27.89275],[67.394241,27.909676],[67.392221,28.229163],[67.3274,28.405091],[67.210098,28.494992],[67.236033,28.715992],[67.331626,28.706347],[67.441443,28.759095],[67.500754,28.712307],[67.534356,28.823576],[67.684816,28.838171]]]]}},{"type":"Feature","properties":{"name":"Kachhi","population":442674,"area":5682,"density":78,"includes":["Kachhi"],"boundaryName":"Kachhi"},"geometry":{"type":"MultiPolygon","coordinates":[[[[67.376298,29.921425],[67.439553,29.89796],[67.508729,29.715349],[67.779047,29.596661],[67.811311,29.462404],[67.876114,29.4298],[67.875161,29.33211],[67.983825,29.375398],[67.983361,29.145546],[67.960066,29.089203],[67.733557,29.147618],[67.740752,29.091061],[67.650184,28.906473],[67.684816,28.838171],[67.534356,28.823576],[67.500754,28.712307],[67.441443,28.759095],[67.331626,28.706347],[67.236033,28.715992],[67.274681,28.856982],[67.322456,28.882645],[67.392508,29.07769],[67.465478,29.213419],[67.44255,29.378647],[67.349678,29.450432],[67.329819,29.526202],[67.123682,29.511815],[67.274589,29.703205],[67.145967,29.80121],[67.12471,29.944251],[67.237642,29.977729],[67.277208,29.928346],[67.376298,29.921425]]]]}},{"type":"Feature","properties":{"name":"Kalat + Surab","population":550598,"area":8416,"density":65,"includes":["Kalat","Surab"],"boundaryName":"Kalat"},"geometry":{"type":"MultiPolygon","coordinates":[[[[67.123682,29.511815],[67.329819,29.526202],[67.349678,29.450432],[67.44255,29.378647],[67.465478,29.213419],[67.392508,29.07769],[67.322456,28.882645],[67.274681,28.856982],[66.774262,28.815317],[66.627435,28.583912],[66.517706,28.550644],[66.428991,28.428253],[66.519327,28.285836],[66.499443,28.167074],[66.258712,28.052164],[66.130776,27.961542],[65.960587,27.938284],[65.964256,28.041134],[65.885641,28.067665],[65.90277,28.172997],[65.831216,28.214723],[65.889853,28.357893],[65.99124,28.474681],[66.084168,28.635124],[66.091119,28.723058],[66.013916,28.73291],[66.12206,28.939252],[66.145508,29.076477],[66.106552,29.1763],[66.163058,29.329617],[66.19278,29.384238],[66.342102,29.337097],[66.528449,29.58829],[66.633897,29.615648],[66.615921,29.462429],[66.662805,29.447796],[66.787309,29.560847],[66.858665,29.548733],[66.815781,29.431656],[67.06221,29.433002],[67.123682,29.511815]]]]}},{"type":"Feature","properties":{"name":"Kech","population":1060931,"area":22539,"density":47,"includes":["Kech"],"boundaryName":"Kech"},"geometry":{"type":"MultiPolygon","coordinates":[[[[63.071289,26.640923],[63.129422,26.579367],[63.091149,26.520947],[63.195098,26.439009],[63.410728,26.504401],[63.592209,26.35715],[63.605862,26.263939],[63.812416,26.315197],[63.888241,26.302282],[64.072512,26.148289],[64.244187,26.168257],[64.365501,26.265954],[64.444633,26.229585],[64.497466,26.176852],[64.502092,26.065405],[64.375853,26.002243],[64.276437,25.751245],[64.352362,25.639879],[64.207403,25.607369],[64.170978,25.559738],[63.999096,25.612087],[63.78093,25.557929],[63.467774,25.407425],[63.354328,25.491771],[63.035488,25.529622],[62.983022,25.597324],[62.803997,25.566019],[62.404438,25.554125],[62.124122,25.473608],[62.054146,25.508892],[62.113049,25.575154],[62.076332,25.679014],[62.011449,25.714014],[61.96022,25.661039],[61.806505,25.700851],[61.779855,25.817539],[61.833035,26.171104],[61.870754,26.246738],[62.061146,26.315418],[62.12809,26.380365],[62.282505,26.358366],[62.256371,26.445982],[62.315067,26.52887],[62.434532,26.568136],[62.608147,26.585012],[62.778698,26.652281],[63.071289,26.640923]]]]}},{"type":"Feature","properties":{"name":"Kharan","population":260352,"area":14958,"density":17,"includes":["Kharan"],"boundaryName":"Kharan"},"geometry":{"type":"MultiPolygon","coordinates":[[[[66.163058,29.329617],[66.106552,29.1763],[66.145508,29.076477],[66.12206,28.939252],[66.013916,28.73291],[66.091119,28.723058],[66.084168,28.635124],[65.99124,28.474681],[65.889853,28.357893],[65.74294,28.315606],[65.738296,28.314349],[65.733612,28.313082],[65.452591,28.180093],[65.35907,28.110617],[65.280959,28.208105],[65.278118,28.405469],[65.211236,28.508399],[65.063256,28.464161],[64.998792,28.448481],[64.961251,28.618945],[64.940025,28.655757],[64.925736,28.673141],[64.912108,28.682776],[64.913094,28.682963],[64.913094,28.682965],[64.913378,28.683019],[65.040849,28.795009],[65.160479,28.814639],[65.368303,28.96853],[65.391599,28.983789],[65.476232,29.032923],[65.588441,29.030902],[65.745673,29.144802],[65.866959,29.128503],[66.009375,29.197487],[66.09819,29.349836],[66.163058,29.329617]]]]}},{"type":"Feature","properties":{"name":"Duki + Loralai","population":477476,"area":8018,"density":60,"includes":["Duki","Loralai"],"boundaryName":"Loralai"},"geometry":{"type":"MultiPolygon","coordinates":[[[[69.561126,30.448367],[69.739542,30.358384],[69.594238,30.137832],[69.437775,30.100965],[69.404067,30.044804],[69.334797,30.008647],[69.17984,30.007858],[69.040725,29.976144],[68.944373,30.028267],[68.804558,29.948944],[68.555382,29.915402],[68.409437,30.016086],[68.208198,30.173775],[68.333284,30.163496],[68.462015,30.189302],[68.56658,30.292339],[68.241078,30.457353],[68.226618,30.529082],[68.034211,30.542917],[67.949958,30.487045],[67.780007,30.503678],[67.700951,30.593492],[67.698959,30.619195],[67.813631,30.615515],[67.938171,30.656721],[67.95798,30.601921],[68.146863,30.612501],[68.252892,30.546674],[68.364401,30.584704],[68.461364,30.534365],[68.644232,30.574993],[68.7677,30.509683],[69.019783,30.593817],[69.141242,30.691128],[69.224618,30.627064],[69.326238,30.621048],[69.561126,30.448367]]]]}},{"type":"Feature","properties":{"name":"Khuzdar","population":997214,"area":35380,"density":28,"includes":["Khuzdar"],"boundaryName":"Khuzdar"},"geometry":{"type":"MultiPolygon","coordinates":[[[[67.236033,28.715992],[67.210098,28.494992],[67.3274,28.405091],[67.392221,28.229163],[67.394241,27.909676],[67.337395,27.725449],[67.248726,27.647995],[67.182884,27.532305],[67.175163,27.447197],[67.126862,27.270029],[67.160606,27.065964],[67.133766,26.878033],[67.146553,26.768429],[67.123788,26.653096],[66.978865,26.584545],[66.985853,26.506346],[67.146613,26.274702],[67.118714,25.992213],[67.134146,25.852074],[67.09285,25.745415],[66.998589,25.734543],[66.902557,25.988468],[66.829338,26.253137],[66.779524,26.330532],[66.753218,26.466571],[66.471399,26.42651],[66.251837,26.479898],[66.187865,26.569715],[66.105005,26.48772],[66.081345,26.367434],[66.043496,26.374409],[65.93316,26.541772],[65.931006,26.611843],[66.000717,26.836529],[66.050887,27.099373],[65.999214,27.145447],[65.912027,27.139364],[65.827645,27.307421],[65.778275,27.357422],[65.592966,27.417526],[65.710755,27.528691],[65.691255,27.582593],[65.809378,27.812067],[65.960587,27.938284],[66.130776,27.961542],[66.258712,28.052164],[66.499443,28.167074],[66.519327,28.285836],[66.428991,28.428253],[66.517706,28.550644],[66.627435,28.583912],[66.774262,28.815317],[67.274681,28.856982],[67.236033,28.715992]]]]}},{"type":"Feature","properties":{"name":"Killa Saifullah","population":380200,"area":6831,"density":56,"includes":["Killa Saifullah"],"boundaryName":"Killa Saifullah"},"geometry":{"type":"MultiPolygon","coordinates":[[[[69.141242,30.691128],[69.019783,30.593817],[68.7677,30.509683],[68.644232,30.574993],[68.461364,30.534365],[68.364401,30.584704],[68.252892,30.546674],[68.146863,30.612501],[67.95798,30.601921],[67.938171,30.656721],[67.813631,30.615515],[67.698959,30.619195],[67.662469,30.689112],[67.488748,30.67098],[67.470063,30.872263],[67.57322,30.897973],[67.73904,31.026098],[67.814866,31.117515],[67.586086,31.162939],[67.445102,31.232998],[67.620421,31.276394],[67.789847,31.356621],[67.740937,31.414784],[67.63378,31.400688],[67.569563,31.534694],[67.699768,31.51939],[67.817394,31.597377],[68.020705,31.496145],[68.237725,31.327022],[68.381057,31.283446],[68.595489,31.35574],[68.656121,31.332252],[68.665634,31.189421],[68.704318,31.09766],[68.80246,31.152321],[69.111479,31.143227],[69.214577,31.088527],[69.304001,30.985998],[69.251815,30.839299],[69.057008,30.756782],[69.141242,30.691128]]]]}},{"type":"Feature","properties":{"name":"Lasbela","population":680977,"area":15153,"density":45,"includes":["Lasbela"],"boundaryName":"Lasbela"},"geometry":{"type":"MultiPolygon","coordinates":[[[[67.320969,25.640454],[67.243988,25.523413],[67.163322,25.45249],[67.162239,25.395407],[67.089722,25.241215],[67.008331,25.162321],[67.007759,25.100937],[66.915939,25.013702],[66.789825,24.968582],[66.702951,24.892689],[66.704147,25.082619],[66.737282,25.196453],[66.678322,25.271114],[66.563217,25.350285],[66.5942,25.425022],[66.558594,25.531887],[66.450912,25.607304],[66.399086,25.583519],[66.300133,25.62364],[66.210426,25.602213],[66.131889,25.538347],[66.12204,25.474194],[66.34285,25.551386],[66.49646,25.458847],[66.505905,25.405308],[66.321907,25.466953],[66.125542,25.450726],[65.954948,25.413172],[65.816002,25.413582],[65.640984,25.350554],[65.371063,25.390251],[65.268547,25.385132],[65.238085,25.344421],[65.204031,25.400507],[65.203154,25.557272],[65.338676,25.591011],[65.465615,25.66305],[65.537813,25.556669],[65.544959,25.43418],[65.749548,25.515089],[65.909592,25.496989],[66.01922,25.453276],[66.069961,25.476263],[66.196871,25.692548],[66.260024,25.849884],[66.201331,26.161245],[66.162347,26.275357],[66.251837,26.479898],[66.471399,26.42651],[66.753218,26.466571],[66.779524,26.330532],[66.829338,26.253137],[66.902557,25.988468],[66.998589,25.734543],[67.09285,25.745415],[67.134146,25.852074],[67.118714,25.992213],[67.146613,26.274702],[66.985853,26.506346],[66.978865,26.584545],[67.123788,26.653096],[67.177582,26.471497],[67.265556,26.346962],[67.359505,26.149969],[67.413147,26.087194],[67.402908,25.792299],[67.320969,25.640454]]]]}},{"type":"Feature","properties":{"name":"Mastung","population":313271,"area":3308,"density":95,"includes":["Mastung"],"boundaryName":"Mastung"},"geometry":{"type":"MultiPolygon","coordinates":[[[[67.12471,29.944251],[67.145967,29.80121],[67.274589,29.703205],[67.123682,29.511815],[67.06221,29.433002],[66.815781,29.431656],[66.858665,29.548733],[66.787309,29.560847],[66.662805,29.447796],[66.615921,29.462429],[66.633897,29.615648],[66.528449,29.58829],[66.342102,29.337097],[66.19278,29.384238],[66.312456,29.631904],[66.278083,29.746906],[66.302855,29.846395],[66.258048,29.86062],[66.268061,29.872807],[66.433611,29.854051],[66.505341,29.809851],[66.683349,30.139668],[66.729951,30.148308],[66.835037,30.069267],[66.948196,30.04723],[66.960689,29.980051],[67.12471,29.944251]]]]}},{"type":"Feature","properties":{"name":"Musakhel","population":182275,"area":5728,"density":32,"includes":["Musakhel"],"boundaryName":"Musakhail"},"geometry":{"type":"MultiPolygon","coordinates":[[[[70.287514,31.165497],[70.252556,30.882833],[70.215767,30.790207],[70.088722,30.697496],[70.085632,30.59292],[69.997772,30.445629],[69.96117,30.322636],[69.801203,30.291074],[69.739542,30.358384],[69.561126,30.448367],[69.527838,30.53826],[69.468649,30.540487],[69.530357,30.663017],[69.531876,30.74824],[69.635361,30.846792],[69.718232,30.984874],[69.696227,31.181444],[69.719628,31.273564],[69.823878,31.293699],[69.930426,31.247805],[70.028619,31.303653],[70.052424,31.398349],[70.260788,31.507456],[70.278625,31.397528],[70.262482,31.201124],[70.287514,31.165497]]]]}},{"type":"Feature","properties":{"name":"Nasirabad","population":563315,"area":3387,"density":166,"includes":["Nasirabad"],"boundaryName":"Nasirabad"},"geometry":{"type":"MultiPolygon","coordinates":[[[[68.448179,28.674008],[68.384051,28.643699],[68.381938,28.639945],[68.382586,28.562721],[68.381791,28.451633],[68.203729,28.440881],[68.078896,28.386445],[68.070969,28.339895],[67.950822,28.238216],[67.803623,28.203558],[67.742617,28.426691],[67.788458,28.553726],[67.775944,28.608114],[67.870696,28.60882],[67.864647,28.665362],[68.023734,28.721252],[68.023457,28.778324],[68.237928,28.859768],[68.259453,28.984258],[68.382867,29.049495],[68.415521,28.965868],[68.448179,28.674008]]]]}},{"type":"Feature","properties":{"name":"Nushki","population":207834,"area":5797,"density":36,"includes":["Nushki"],"boundaryName":"Nushki"},"geometry":{"type":"MultiPolygon","coordinates":[[[[66.163058,29.329617],[66.09819,29.349836],[66.009375,29.197487],[65.866959,29.128503],[65.745673,29.144802],[65.588441,29.030902],[65.476232,29.032923],[65.261122,29.413469],[65.129303,29.551637],[65.781144,29.723744],[66.258048,29.86062],[66.302855,29.846395],[66.278083,29.746906],[66.312456,29.631904],[66.19278,29.384238],[66.163058,29.329617]]]]}},{"type":"Feature","properties":{"name":"Panjgur","population":509781,"area":16891,"density":30,"includes":["Panjgur"],"boundaryName":"Panjgur"},"geometry":{"type":"MultiPolygon","coordinates":[[[[64.500588,27.155362],[64.500442,27.153177],[64.495096,27.112984],[64.693778,27.004379],[65.014421,27.182373],[65.084405,27.032694],[65.181192,27.022911],[65.280851,26.888876],[65.336272,26.895407],[65.298468,26.803366],[65.1279,26.630026],[64.914901,26.450734],[64.918374,26.367681],[64.445404,26.365505],[64.444633,26.229585],[64.365501,26.265954],[64.244187,26.168257],[64.072512,26.148289],[63.888241,26.302282],[63.812416,26.315197],[63.605862,26.263939],[63.592209,26.35715],[63.410728,26.504401],[63.195098,26.439009],[63.091149,26.520947],[63.129422,26.579367],[63.071289,26.640923],[63.169186,26.647295],[63.192135,26.843493],[63.275532,26.864769],[63.255905,27.082952],[63.317459,27.138659],[63.248117,27.208451],[63.419373,27.194795],[63.723958,27.235622],[63.73466,27.236416],[63.743893,27.238704],[63.825986,27.256057],[63.903029,27.14842],[63.996633,27.088711],[64.124319,27.070976],[64.328431,27.238571],[64.426261,27.287487],[64.484972,27.200884],[64.499044,27.165845],[64.500588,27.155362]]]]}},{"type":"Feature","properties":{"name":"Pishin","population":835482,"area":6218,"density":134,"includes":["Pishin"],"boundaryName":"Pishin"},"geometry":{"type":"MultiPolygon","coordinates":[[[[67.698959,30.619195],[67.700951,30.593492],[67.58879,30.587318],[67.528002,30.516242],[67.449594,30.584963],[67.36722,30.586382],[67.274797,30.531756],[67.218833,30.443753],[67.125118,30.437859],[67.048737,30.373517],[66.9643,30.393663],[66.917165,30.473528],[66.859528,30.468665],[66.702752,30.188717],[66.650282,30.172488],[66.523571,30.222329],[66.512907,30.274155],[66.572372,30.482201],[66.561772,30.582859],[66.848974,30.581435],[66.767393,30.748975],[66.834167,30.856514],[66.853896,30.953354],[66.920605,30.920556],[66.991996,30.973238],[67.067663,30.937978],[67.223081,31.033737],[67.262018,31.206941],[67.445102,31.232998],[67.586086,31.162939],[67.814866,31.117515],[67.73904,31.026098],[67.57322,30.897973],[67.470063,30.872263],[67.488748,30.67098],[67.662469,30.689112],[67.698959,30.619195]]]]}},{"type":"Feature","properties":{"name":"Quetta","population":2595492,"area":3447,"density":753,"includes":["Quetta"],"boundaryName":"Quetta"},"geometry":{"type":"MultiPolygon","coordinates":[[[[67.218833,30.443753],[67.192681,30.368177],[67.280189,30.332874],[67.277932,30.207849],[67.412542,30.176466],[67.432113,30.051931],[67.354255,30.004118],[67.376298,29.921425],[67.277208,29.928346],[67.237642,29.977729],[67.12471,29.944251],[66.960689,29.980051],[66.948196,30.04723],[66.835037,30.069267],[66.729951,30.148308],[66.683349,30.139668],[66.505341,29.809851],[66.433611,29.854051],[66.268061,29.872807],[66.358758,29.974448],[66.239863,30.086096],[66.350629,30.185903],[66.468382,30.158728],[66.523571,30.222329],[66.650282,30.172488],[66.702752,30.188717],[66.859528,30.468665],[66.917165,30.473528],[66.9643,30.393663],[67.048737,30.373517],[67.125118,30.437859],[67.218833,30.443753]]]]}},{"type":"Feature","properties":{"name":"Sibi","population":224148,"area":7121,"density":31,"includes":["Sibi"],"boundaryName":"Sibi"},"geometry":{"type":"MultiPolygon","coordinates":[[[[68.398278,29.936395],[68.402556,29.905695],[68.568138,29.828848],[68.572435,29.732542],[68.432077,29.624041],[68.265642,29.628489],[68.193679,29.584566],[68.099067,29.419155],[68.177276,29.374453],[68.086494,29.34207],[67.983825,29.375398],[67.875161,29.33211],[67.876114,29.4298],[67.811311,29.462404],[67.779047,29.596661],[67.508729,29.715349],[67.439553,29.89796],[67.376298,29.921425],[67.354255,30.004118],[67.432113,30.051931],[67.519449,30.030998],[67.561974,30.092829],[67.673239,30.126033],[67.791458,30.062614],[67.778579,30.017627],[67.972519,30.021892],[68.011057,29.960087],[67.976456,29.839889],[68.028618,29.816669],[68.064437,29.888434],[68.272744,29.932131],[68.398278,29.936395]]],[[[68.177276,29.374453],[68.343291,29.263837],[68.486501,29.217451],[68.29664,29.226202],[68.289491,29.161114],[68.382867,29.049495],[68.259453,28.984258],[68.237928,28.859768],[68.023457,28.778324],[68.023734,28.721252],[67.864647,28.665362],[67.870696,28.60882],[67.775944,28.608114],[67.684816,28.838171],[67.650184,28.906473],[67.740752,29.091061],[67.733557,29.147618],[67.960066,29.089203],[67.983361,29.145546],[67.983825,29.375398],[68.086494,29.34207],[68.177276,29.374453]]]]}},{"type":"Feature","properties":{"name":"Washuk","population":302623,"area":33093,"density":9,"includes":["Washuk"],"boundaryName":"Washuk"},"geometry":{"type":"MultiPolygon","coordinates":[[[[63.73466,27.236416],[63.723958,27.235622],[63.419373,27.194795],[63.248117,27.208451],[63.184223,27.241436],[63.058647,27.233189],[62.977245,27.19511],[62.821362,27.21232],[62.781479,27.251425],[62.855392,27.465137],[62.801957,27.888823],[62.868493,27.930945],[62.887763,27.949364],[62.897932,27.961012],[62.898512,27.961678],[62.934841,28.001396],[63.0008,28.056248],[63.015331,28.069663],[63.020088,28.073662],[63.032666,28.083253],[63.056572,28.101991],[63.065954,28.109623],[63.205051,28.182953],[63.26043,28.276556],[63.823731,28.305291],[63.923523,28.379089],[64.006714,28.382324],[64.126709,28.467712],[64.407039,28.523397],[64.498749,28.61161],[64.811225,28.695111],[64.91211,28.682778],[64.913094,28.682965],[64.913094,28.682963],[64.912108,28.682776],[64.925736,28.673141],[64.940025,28.655757],[64.961251,28.618945],[64.998792,28.448481],[65.063256,28.464161],[65.211236,28.508399],[65.278118,28.405469],[65.280959,28.208105],[65.35907,28.110617],[65.452591,28.180093],[65.733612,28.313082],[65.738296,28.314349],[65.74294,28.315606],[65.889853,28.357893],[65.831216,28.214723],[65.90277,28.172997],[65.885641,28.067665],[65.964256,28.041134],[65.960587,27.938284],[65.809378,27.812067],[65.691255,27.582593],[65.710755,27.528691],[65.592966,27.417526],[65.538641,27.257729],[65.347313,26.983736],[65.336272,26.895407],[65.280851,26.888876],[65.181192,27.022911],[65.084405,27.032694],[65.014421,27.182373],[64.693778,27.004379],[64.495096,27.112984],[64.500442,27.153177],[64.500588,27.155362],[64.499044,27.165845],[64.484972,27.200884],[64.426261,27.287487],[64.328431,27.238571],[64.124319,27.070976],[63.996633,27.088711],[63.903029,27.14842],[63.825986,27.256057],[63.743893,27.238704],[63.73466,27.236416]]]]}},{"type":"Feature","properties":{"name":"Zhob","population":355692,"area":15987,"density":22,"includes":["Zhob"],"boundaryName":"Zhob"},"geometry":{"type":"MultiPolygon","coordinates":[[[[69.546152,31.956688],[69.62171,31.840328],[69.531311,31.521212],[69.569398,31.356721],[69.722992,31.325514],[69.719628,31.273564],[69.696227,31.181444],[69.718232,30.984874],[69.635361,30.846792],[69.531876,30.74824],[69.530357,30.663017],[69.468649,30.540487],[69.527838,30.53826],[69.561126,30.448367],[69.326238,30.621048],[69.224618,30.627064],[69.141242,30.691128],[69.057008,30.756782],[69.251815,30.839299],[69.304001,30.985998],[69.214577,31.088527],[69.111479,31.143227],[68.80246,31.152321],[68.704318,31.09766],[68.665634,31.189421],[68.656121,31.332252],[68.595489,31.35574],[68.381057,31.283446],[68.237725,31.327022],[68.020705,31.496145],[67.817394,31.597377],[67.949922,31.633414],[68.064086,31.699399],[68.17749,31.814499],[68.286606,31.756998],[68.463677,31.748125],[68.570143,31.827966],[68.701844,31.769878],[68.716987,31.696645],[68.804938,31.60998],[68.900636,31.601245],[69.117943,31.703262],[69.197607,31.848397],[69.320921,31.951891],[69.523117,31.975599],[69.546152,31.956688]]]]}},{"type":"Feature","properties":{"name":"Ziarat","population":189535,"area":3301,"density":57,"includes":["Ziarat"],"boundaryName":"Ziarat"},"geometry":{"type":"MultiPolygon","coordinates":[[[[67.700951,30.593492],[67.780007,30.503678],[67.949958,30.487045],[68.034211,30.542917],[68.226618,30.529082],[68.241078,30.457353],[68.56658,30.292339],[68.462015,30.189302],[68.333284,30.163496],[68.208198,30.173775],[68.098751,30.261092],[67.868878,30.34455],[67.757059,30.355923],[67.583037,30.27726],[67.489936,30.315366],[67.280189,30.332874],[67.192681,30.368177],[67.218833,30.443753],[67.274797,30.531756],[67.36722,30.586382],[67.449594,30.584963],[67.528002,30.516242],[67.58879,30.587318],[67.700951,30.593492]]]]}}]}